{"type": "FeatureCollection", "features": [ {"type": "Feature", "properties": {"norad_id": 36402, "name": "COSMOS 2460 (732)", "group": "gnss", "lat": 65.24092064190815, "lon": 59.61597500904757, "alt_km": 19128.904320128117, "timestamp": "2025-12-24T05:51:19.851100+00:00", "meta": {"OBJECT_NAME": "COSMOS 2460 (732)", "OBJECT_ID": "2010-007C", "EPOCH": "2025-12-22T12:30:28.820160", "MEAN_MOTION": 2.1310637, "ECCENTRICITY": 0.00025026, "INCLINATION": 65.5243, "RA_OF_ASC_NODE": 320.4432, "ARG_OF_PERICENTER": 283.7046, "MEAN_ANOMALY": 288.4145, "EPHEMERIS_TYPE": 0, "CLASSIFICATION_TYPE": "U", "NORAD_CAT_ID": 36402, "ELEMENT_SET_NO": 999, "REV_AT_EPOCH": 12296, "BSTAR": 0, "MEAN_MOTION_DOT": -3.9e-07, "MEAN_MOTION_DDOT": 0}, "tle": {"line1": "1 36402U 10007C   25356.52116690 -.00000039  00000+0  00000+0 0  9995", "line2": "2 36402  65.5243 320.4432 0002502 283.7046 288.4145  2.13106370122964"}}, "geometry": {"type": "Point", "coordinates": [59.61597500904757, 65.24092064190815]}}, {"type": "Feature", "properties": {"norad_id": 36585, "name": "GPS BIIF-1  (PRN 25)", "group": "gnss", "lat": -24.68116948069767, "lon": 54.91928032817108, "alt_km": 20462.894207521076, "timestamp": "2025-12-24T05:51:19.851112+00:00", "meta": {"OBJECT_NAME": "GPS BIIF-1  (PRN 25)", "OBJECT_ID": "2010-022A", "EPOCH": "2025-12-23T05:44:03.055200", "MEAN_MOTION": 2.00553739, "ECCENTRICITY": 0.01265225, "INCLINATION": 54.2985, "RA_OF_ASC_NODE": 215.6505, "ARG_OF_PERICENTER": 65.2085, "MEAN_ANOMALY": 139.2805, "EPHEMERIS_TYPE": 0, "CLASSIFICATION_TYPE": "U", "NORAD_CAT_ID": 36585, "ELEMENT_SET_NO": 999, "REV_AT_EPOCH": 11406, "BSTAR": 0, "MEAN_MOTION_DOT": 7.2e-07, "MEAN_MOTION_DDOT": 0}, "tle": {"line1": "1 36585U 10022A   25357.23892425  .00000072  00000+0  00000+0 0  9996", "line2": "2 36585  54.2985 215.6505 0126522  65.2085 139.2805  2.00553739114064"}}, "geometry": {"type": "Point", "coordinates": [54.91928032817108, -24.68116948069767]}}, {"type": "Feature", "properties": {"norad_id": 36828, "name": "BEIDOU-2 IGSO-1 (C06)", "group": "gnss", "lat": 42.39088966113398, "lon": -56.566049106271294, "alt_km": 35783.31364242388, "timestamp": "2025-12-24T05:51:19.851124+00:00", "meta": {"OBJECT_NAME": "BEIDOU-2 IGSO-1 (C06)", "OBJECT_ID": "2010-036A", "EPOCH": "2025-12-20T21:47:26.739168", "MEAN_MOTION": 1.00282395, "ECCENTRICITY": 0.0051798, "INCLINATION": 54.2882, "RA_OF_ASC_NODE": 164.5739, "ARG_OF_PERICENTER": 215.2932, "MEAN_ANOMALY": 144.6604, "EPHEMERIS_TYPE": 0, "CLASSIFICATION_TYPE": "U", "NORAD_CAT_ID": 36828, "ELEMENT_SET_NO": 999, "REV_AT_EPOCH": 5631, "BSTAR": 0, "MEAN_MOTION_DOT": -5.5e-07, "MEAN_MOTION_DDOT": 0}, "tle": {"line1": "1 36828U 10036A   25354.90794837 -.00000055  00000+0  00000+0 0  9992", "line2": "2 36828  54.2882 164.5739 0051798 215.2932 144.6604  1.00282395 56317"}}, "geometry": {"type": "Point", "coordinates": [-56.566049106271294, 42.39088966113398]}}, {"type": "Feature", "properties": {"norad_id": 37210, "name": "BEIDOU-2 G4 (C04)", "group": "gnss", "lat": -3.2238246783110247, "lon": -18.944843620653916, "alt_km": 35776.842258059434, "timestamp": "2025-12-24T05:51:19.851137+00:00", "meta": {"OBJECT_NAME": "BEIDOU-2 G4 (C04)", "OBJECT_ID": "2010-057A", "EPOCH": "2025-12-23T20:44:30.710976", "MEAN_MOTION": 1.00271714, "ECCENTRICITY": 0.00104108, "INCLINATION": 3.2104, "RA_OF_ASC_NODE": 69.8962, "ARG_OF_PERICENTER": 193.6802, "MEAN_ANOMALY": 300.2845, "EPHEMERIS_TYPE": 0, "CLASSIFICATION_TYPE": "U", "NORAD_CAT_ID": 37210, "ELEMENT_SET_NO": 999, "REV_AT_EPOCH": 5553, "BSTAR": 0, "MEAN_MOTION_DOT": -9.2e-07, "MEAN_MOTION_DDOT": 0}, "tle": {"line1": "1 37210U 10057A   25357.86424434 -.00000092  00000+0  00000+0 0  9993", "line2": "2 37210   3.2104  69.8962 0010410 193.6802 300.2845  1.00271714 55533"}}, "geometry": {"type": "Point", "coordinates": [-18.944843620653916, -3.2238246783110247]}}, {"type": "Feature", "properties": {"norad_id": 37256, "name": "BEIDOU-2 IGSO-2 (C07)", "group": "gnss", "lat": 11.087618695286425, "lon": -75.7929185669815, "alt_km": 35972.92956691148, "timestamp": "2025-12-24T05:51:19.851149+00:00", "meta": {"OBJECT_NAME": "BEIDOU-2 IGSO-2 (C07)", "OBJECT_ID": "2010-068A", "EPOCH": "2025-12-23T17:03:51.690816", "MEAN_MOTION": 1.00283101, "ECCENTRICITY": 0.00485637, "INCLINATION": 47.8659, "RA_OF_ASC_NODE": 274.0149, "ARG_OF_PERICENTER": 216.3394, "MEAN_ANOMALY": 326.1369, "EPHEMERIS_TYPE": 0, "CLASSIFICATION_TYPE": "U", "NORAD_CAT_ID": 37256, "ELEMENT_SET_NO": 999, "REV_AT_EPOCH": 5503, "BSTAR": 0, "MEAN_MOTION_DOT": -1.88e-06, "MEAN_MOTION_DDOT": 0}, "tle": {"line1": "1 37256U 10068A   25357.71101494 -.00000188  00000+0  00000+0 0  9993", "line2": "2 37256  47.8659 274.0149 0048563 216.3394 326.1369  1.00283101 55034"}}, "geometry": {"type": "Point", "coordinates": [-75.7929185669815, 11.087618695286425]}}, {"type": "Feature", "properties": {"norad_id": 37384, "name": "BEIDOU-2 IGSO-3 (C08)", "group": "gnss", "lat": -54.23076809351569, "lon": -90.99529508437267, "alt_km": 35715.94421882038, "timestamp": "2025-12-24T05:51:19.851161+00:00", "meta": {"OBJECT_NAME": "BEIDOU-2 IGSO-3 (C08)", "OBJECT_ID": "2011-013A", "EPOCH": "2025-12-23T13:38:13.451136", "MEAN_MOTION": 1.00268394, "ECCENTRICITY": 0.00353473, "INCLINATION": 62.1571, "RA_OF_ASC_NODE": 41.8137, "ARG_OF_PERICENTER": 187.6149, "MEAN_ANOMALY": 174.7745, "EPHEMERIS_TYPE": 0, "CLASSIFICATION_TYPE": "U", "NORAD_CAT_ID": 37384, "ELEMENT_SET_NO": 999, "REV_AT_EPOCH": 5390, "BSTAR": 0, "MEAN_MOTION_DOT": -1.6e-06, "MEAN_MOTION_DDOT": 0}, "tle": {"line1": "1 37384U 11013A   25357.56821124 -.00000160  00000+0  00000+0 0  9998", "line2": "2 37384  62.1571  41.8137 0035347 187.6149 174.7745  1.00268394 53906"}}, "geometry": {"type": "Point", "coordinates": [-90.99529508437267, -54.23076809351569]}}, {"type": "Feature", "properties": {"norad_id": 37605, "name": "GSAT-8 (GAGAN/PRN 127)", "group": "gnss", "lat": 0.7781875230009229, "lon": -124.12948247240904, "alt_km": 35754.83227471371, "timestamp": "2025-12-24T05:51:19.851173+00:00", "meta": {"OBJECT_NAME": "GSAT-8 (GAGAN/PRN 127)", "OBJECT_ID": "2011-022A", "EPOCH": "2025-12-23T21:57:16.242912", "MEAN_MOTION": 1.00271302, "ECCENTRICITY": 0.00089337, "INCLINATION": 1.6768, "RA_OF_ASC_NODE": 84.078, "ARG_OF_PERICENTER": 186.0621, "MEAN_ANOMALY": 206.9433, "EPHEMERIS_TYPE": 0, "CLASSIFICATION_TYPE": "U", "NORAD_CAT_ID": 37605, "ELEMENT_SET_NO": 999, "REV_AT_EPOCH": 5146, "BSTAR": 0, "MEAN_MOTION_DOT": 1.05e-06, "MEAN_MOTION_DDOT": 0}, "tle": {"line1": "1 37605U 11022A   25357.91477133  .00000105  00000+0  00000+0 0  9998", "line2": "2 37605   1.6768  84.0780 0008933 186.0621 206.9433  1.00271302 51464"}}, "geometry": {"type": "Point", "coordinates": [-124.12948247240904, 0.7781875230009229]}}, {"type": "Feature", "properties": {"norad_id": 37763, "name": "BEIDOU-2 IGSO-4 (C09)", "group": "gnss", "lat": 51.186148493794086, "lon": -75.08078413456786, "alt_km": 36115.98565353499, "timestamp": "2025-12-24T05:51:19.851185+00:00", "meta": {"OBJECT_NAME": "BEIDOU-2 IGSO-4 (C09)", "OBJECT_ID": "2011-038A", "EPOCH": "2025-12-21T10:06:26.864064", "MEAN_MOTION": 1.00280083, "ECCENTRICITY": 0.01491557, "INCLINATION": 54.5854, "RA_OF_ASC_NODE": 167.2693, "ARG_OF_PERICENTER": 230.0944, "MEAN_ANOMALY": 299.1265, "EPHEMERIS_TYPE": 0, "CLASSIFICATION_TYPE": "U", "NORAD_CAT_ID": 37763, "ELEMENT_SET_NO": 999, "REV_AT_EPOCH": 5286, "BSTAR": 0, "MEAN_MOTION_DOT": 5.9e-07, "MEAN_MOTION_DDOT": 0}, "tle": {"line1": "1 37763U 11038A   25355.42114426  .00000059  00000+0  00000+0 0  9995", "line2": "2 37763  54.5854 167.2693 0149155 230.0944 299.1265  1.00280083 52867"}}, "geometry": {"type": "Point", "coordinates": [-75.08078413456786, 51.186148493794086]}}, {"type": "Feature", "properties": {"norad_id": 37846, "name": "GSAT0101 (GALILEO-PFM)", "group": "gnss", "lat": 45.65201663748076, "lon": 124.93034636514598, "alt_km": 23225.594834852574, "timestamp": "2025-12-24T05:51:19.851198+00:00", "meta": {"OBJECT_NAME": "GSAT0101 (GALILEO-PFM)", "OBJECT_ID": "2011-060A", "EPOCH": "2025-12-22T06:52:10.962336", "MEAN_MOTION": 1.70475741, "ECCENTRICITY": 0.00032123, "INCLINATION": 57.0506, "RA_OF_ASC_NODE": 346.5611, "ARG_OF_PERICENTER": 320.0005, "MEAN_ANOMALY": 39.9838, "EPHEMERIS_TYPE": 0, "CLASSIFICATION_TYPE": "U", "NORAD_CAT_ID": 37846, "ELEMENT_SET_NO": 999, "REV_AT_EPOCH": 8810, "BSTAR": 0, "MEAN_MOTION_DOT": -6.5e-07, "MEAN_MOTION_DDOT": 0}, "tle": {"line1": "1 37846U 11060A   25356.28623799 -.00000065  00000+0  00000+0 0  9993", "line2": "2 37846  57.0506 346.5611 0003212 320.0005  39.9838  1.70475741 88100"}}, "geometry": {"type": "Point", "coordinates": [124.93034636514598, 45.65201663748076]}}, {"type": "Feature", "properties": {"norad_id": 37847, "name": "GSAT0102 (GALILEO-FM2)", "group": "gnss", "lat": 10.899722616194195, "lon": 159.32257384086088, "alt_km": 23233.504834650314, "timestamp": "2025-12-24T05:51:19.851210+00:00", "meta": {"OBJECT_NAME": "GSAT0102 (GALILEO-FM2)", "OBJECT_ID": "2011-060B", "EPOCH": "2025-12-22T11:58:40.586304", "MEAN_MOTION": 1.70475957, "ECCENTRICITY": 0.00051595, "INCLINATION": 57.0512, "RA_OF_ASC_NODE": 346.5558, "ARG_OF_PERICENTER": 313.0615, "MEAN_ANOMALY": 223.0229, "EPHEMERIS_TYPE": 0, "CLASSIFICATION_TYPE": "U", "NORAD_CAT_ID": 37847, "ELEMENT_SET_NO": 999, "REV_AT_EPOCH": 8811, "BSTAR": 0, "MEAN_MOTION_DOT": -6.5e-07, "MEAN_MOTION_DDOT": 0}, "tle": {"line1": "1 37847U 11060B   25356.49908086 -.00000065  00000+0  00000+0 0  9992", "line2": "2 37847  57.0512 346.5558 0005159 313.0615 223.0229  1.70475957 88119"}}, "geometry": {"type": "Point", "coordinates": [159.32257384086088, 10.899722616194195]}}]}